P109rXK 17.5  0.15  K13BO 322.22271  307.96804  224.42273   13.72592  0.5131088  0.32918480   2.0773493                  4   1    0 days 0.01         NEOCPNomin
